{
  "type": "FeatureCollection",
  "name": "stat_geom_qc_demo",
  "crs": {
    "type": "name",
    "properties": {
      "name": "EPSG:3857"
    }
  },
  "features": [
    {
      "type": "Feature",
      "properties": {"demo_id": 1, "case": "clean_reference"},
      "geometry": {
        "type": "Polygon",
        "coordinates": [[[0, 0], [10, 0], [10, 10], [0, 10], [0, 0]]]
      }
    },
    {
      "type": "Feature",
      "properties": {"demo_id": 2, "case": "true_overlap"},
      "geometry": {
        "type": "Polygon",
        "coordinates": [[[9, 0], [19, 0], [19, 10], [9, 10], [9, 0]]]
      }
    },
    {
      "type": "Feature",
      "properties": {"demo_id": 3, "case": "exact_duplicate"},
      "geometry": {
        "type": "Polygon",
        "coordinates": [[[0, 0], [10, 0], [10, 10], [0, 10], [0, 0]]]
      }
    },
    {
      "type": "Feature",
      "properties": {"demo_id": 4, "case": "small_polygon"},
      "geometry": {
        "type": "Polygon",
        "coordinates": [[[30, 0], [31, 0], [31, 1], [30, 1], [30, 0]]]
      }
    },
    {
      "type": "Feature",
      "properties": {"demo_id": 5, "case": "self_intersection"},
      "geometry": {
        "type": "Polygon",
        "coordinates": [[[70, 0], [80, 10], [80, 0], [70, 10], [70, 0]]]
      }
    },
    {
      "type": "Feature",
      "properties": {"demo_id": 6, "case": "small_hole"},
      "geometry": {
        "type": "Polygon",
        "coordinates": [
          [[50, 0], [60, 0], [60, 10], [50, 10], [50, 0]],
          [[54, 4], [54, 5], [55, 5], [55, 4], [54, 4]]
        ]
      }
    }
  ]
}
